STARLINK-31046          
1 58552U 23192X   25285.51204315  .00000617  00000+0  32966-4 0  9998
2 58552  53.1601  31.3682 0001046  93.7472 266.3649 15.30194794103293
STARLINK-31044          
1 58589U 23200A   25286.20948270 -.00003533  00000+0 -24650-3 0  9992
2 58589  43.0076 251.2445 0001079 265.4238  94.6481 15.02550045101413
STARLINK-31062          
1 58590U 23200B   25285.29690946  .00000657  00000+0  63719-4 0  9998
2 58590  43.0063 258.1626 0001096 268.7730  91.2987 15.02536889101256
STARLINK-31096          
1 58592U 23200D   25286.18875222 -.00000371  00000+0 -12405-4 0  9992
2 58592  43.0034 252.8198 0000897 276.2920  83.7821 15.02540394101398
STARLINK-31094          
1 58593U 23200E   25286.19960927  .00000230  00000+0  32101-4 0  9998
2 58593  43.0033 252.0479 0001111 276.5836  83.4880 15.02538324101405
STARLINK-31075          
1 58594U 23200F   25286.18628835  .00000031  00000+0  17333-4 0  9996
2 58594  43.0041 251.9391 0000922 269.8842  90.1895 15.02539688101402
STARLINK-30857          
1 58595U 23200G   25285.32541194 -.00001354  00000+0 -85197-4 0  9998
2 58595  43.0039 256.6677 0001337 287.8447  72.2249 15.02529679101279
STARLINK-31059          
1 58596U 23200H   25286.26025389  .00001844  00000+0  76504-4 0  9990
2 58596  43.0013 124.7285 0000698 277.2379  82.8393 15.27580362102909
STARLINK-31087          
1 58597U 23200J   25286.18295550  .00000009  00000+0  15743-4 0  9991
2 58597  43.0021 251.9193 0000803 267.0619  93.0131 15.02544771101294
STARLINK-31079          
1 58598U 23200K   25286.20365173  .00072735  00000+0  41706-2 0  9995
2 58598  42.9998 247.8428 0008523 123.0173 237.1492 15.11649947101454
STARLINK-31052          
1 58600U 23200M   25286.17630148  .00002167  00000+0  17546-3 0  9990
2 58600  43.0034 251.8703 0001550 266.9332  93.1333 15.02527627101408
STARLINK-31074          
1 58601U 23200N   25286.17298088  .00004113  00000+0  31933-3 0  9993
2 58601  43.0053 251.8457 0000699 248.8037 111.2731 15.02535827101405
STARLINK-31071          
1 58602U 23200P   25286.26458543  .00000640  00000+0  32791-4 0  9993
2 58602  43.0023 121.2563 0001481 274.3023  85.7659 15.27581345102947
STARLINK-31080          
1 58603U 23200Q   25285.63629460  .00020232  00000+0  14949-2 0  9994
2 58603  43.0021 254.6984 0000943 269.8987  90.1747 15.02878266101136
STARLINK-31088          
1 58604U 23200R   25285.63448632  .00000973  00000+0  87107-4 0  9993
2 58604  43.0025 254.6700 0001087 273.8842  86.1876 15.02538984101321
STARLINK-31038          
1 58605U 23200S   25285.96025792 -.00001911  00000+0 -12653-3 0  9996
2 58605  43.0072 252.8322 0001424 271.5608  88.5071 15.02502831101374
