[{"OBJECT_NAME":"STARLINK-31046","OBJECT_ID":"2023-192X","EPOCH":"2025-10-12T12:17:20.528160","MEAN_MOTION":15.30194794,"ECCENTRICITY":0.00010464,"INCLINATION":53.1601,"RA_OF_ASC_NODE":31.3682,"ARG_OF_PERICENTER":93.7472,"MEAN_ANOMALY":266.3649,"EPHEMERIS_TYPE":0,"CLASSIFICATION_TYPE":"U","NORAD_CAT_ID":58552,"ELEMENT_SET_NO":999,"REV_AT_EPOCH":10329,"BSTAR":3.2966259e-5,"MEAN_MOTION_DOT":6.17e-6,"MEAN_MOTION_DDOT":0},{"OBJECT_NAME":"STARLINK-31044","OBJECT_ID":"2023-200A","EPOCH":"2025-10-13T05:01:39.305280","MEAN_MOTION":15.02550045,"ECCENTRICITY":0.00010791,"INCLINATION":43.0076,"RA_OF_ASC_NODE":251.2445,"ARG_OF_PERICENTER":265.4238,"MEAN_ANOMALY":94.6481,"EPHEMERIS_TYPE":0,"CLASSIFICATION_TYPE":"U","NORAD_CAT_ID":58589,"ELEMENT_SET_NO":999,"REV_AT_EPOCH":10141,"BSTAR":-0.00024649775,"MEAN_MOTION_DOT":-3.533e-5,"MEAN_MOTION_DDOT":0},{"OBJECT_NAME":"STARLINK-31062","OBJECT_ID":"2023-200B","EPOCH":"2025-10-12T07:07:32.977344","MEAN_MOTION":15.02536889,"ECCENTRICITY":0.00010967,"INCLINATION":43.0063,"RA_OF_ASC_NODE":258.1626,"ARG_OF_PERICENTER":268.773,"MEAN_ANOMALY":91.2987,"EPHEMERIS_TYPE":0,"CLASSIFICATION_TYPE":"U","NORAD_CAT_ID":58590,"ELEMENT_SET_NO":999,"REV_AT_EPOCH":10125,"BSTAR":6.3718903e-5,"MEAN_MOTION_DOT":6.57e-6,"MEAN_MOTION_DDOT":0},{"OBJECT_NAME":"STARLINK-31096","OBJECT_ID":"2023-200D","EPOCH":"2025-10-13T04:31:48.191808","MEAN_MOTION":15.02540394,"ECCENTRICITY":8.979e-5,"INCLINATION":43.0034,"RA_OF_ASC_NODE":252.8198,"ARG_OF_PERICENTER":276.292,"MEAN_ANOMALY":83.7821,"EPHEMERIS_TYPE":0,"CLASSIFICATION_TYPE":"U","NORAD_CAT_ID":58592,"ELEMENT_SET_NO":999,"REV_AT_EPOCH":10139,"BSTAR":-1.2405012e-5,"MEAN_MOTION_DOT":-3.71e-6,"MEAN_MOTION_DDOT":0},{"OBJECT_NAME":"STARLINK-31094","OBJECT_ID":"2023-200E","EPOCH":"2025-10-13T04:47:26.240928","MEAN_MOTION":15.02538324,"ECCENTRICITY":0.0001111,"INCLINATION":43.0033,"RA_OF_ASC_NODE":252.0479,"ARG_OF_PERICENTER":276.5836,"MEAN_ANOMALY":83.488,"EPHEMERIS_TYPE":0,"CLASSIFICATION_TYPE":"U","NORAD_CAT_ID":58593,"ELEMENT_SET_NO":999,"REV_AT_EPOCH":10140,"BSTAR":3.2101116e-5,"MEAN_MOTION_DOT":2.3e-6,"MEAN_MOTION_DDOT":0},{"OBJECT_NAME":"STARLINK-31075","OBJECT_ID":"2023-200F","EPOCH":"2025-10-13T04:28:15.313440","MEAN_MOTION":15.02539688,"ECCENTRICITY":9.229e-5,"INCLINATION":43.0041,"RA_OF_ASC_NODE":251.9391,"ARG_OF_PERICENTER":269.8842,"MEAN_ANOMALY":90.1895,"EPHEMERIS_TYPE":0,"CLASSIFICATION_TYPE":"U","NORAD_CAT_ID":58594,"ELEMENT_SET_NO":999,"REV_AT_EPOCH":10140,"BSTAR":1.7332703e-5,"MEAN_MOTION_DOT":3.1e-7,"MEAN_MOTION_DDOT":0},{"OBJECT_NAME":"STARLINK-30857","OBJECT_ID":"2023-200G","EPOCH":"2025-10-12T07:48:35.591616","MEAN_MOTION":15.02529679,"ECCENTRICITY":0.00013379,"INCLINATION":43.0039,"RA_OF_ASC_NODE":256.6677,"ARG_OF_PERICENTER":287.8447,"MEAN_ANOMALY":72.2249,"EPHEMERIS_TYPE":0,"CLASSIFICATION_TYPE":"U","NORAD_CAT_ID":58595,"ELEMENT_SET_NO":999,"REV_AT_EPOCH":10127,"BSTAR":-8.5197361e-5,"MEAN_MOTION_DOT":-1.354e-5,"MEAN_MOTION_DDOT":0},{"OBJECT_NAME":"STARLINK-31059","OBJECT_ID":"2023-200H","EPOCH":"2025-10-13T06:14:45.936096","MEAN_MOTION":15.27580362,"ECCENTRICITY":6.981e-5,"INCLINATION":43.0013,"RA_OF_ASC_NODE":124.7285,"ARG_OF_PERICENTER":277.2379,"MEAN_ANOMALY":82.8393,"EPHEMERIS_TYPE":0,"CLASSIFICATION_TYPE":"U","NORAD_CAT_ID":58596,"ELEMENT_SET_NO":999,"REV_AT_EPOCH":10290,"BSTAR":7.6504258e-5,"MEAN_MOTION_DOT":1.844e-5,"MEAN_MOTION_DDOT":0},{"OBJECT_NAME":"STARLINK-31087","OBJECT_ID":"2023-200J","EPOCH":"2025-10-13T04:23:27.355200","MEAN_MOTION":15.02544771,"ECCENTRICITY":8.031e-5,"INCLINATION":43.0021,"RA_OF_ASC_NODE":251.9193,"ARG_OF_PERICENTER":267.0619,"MEAN_ANOMALY":93.0131,"EPHEMERIS_TYPE":0,"CLASSIFICATION_TYPE":"U","NORAD_CAT_ID":58597,"ELEMENT_SET_NO":999,"REV_AT_EPOCH":10129,"BSTAR":1.5743088e-5,"MEAN_MOTION_DOT":9.0e-8,"MEAN_MOTION_DDOT":0},{"OBJECT_NAME":"STARLINK-31079","OBJECT_ID":"2023-200K","EPOCH":"2025-10-13T04:53:15.509472","MEAN_MOTION":15.11649947,"ECCENTRICITY":0.00085239,"INCLINATION":42.9998,"RA_OF_ASC_NODE":247.8428,"ARG_OF_PERICENTER":123.0173,"MEAN_ANOMALY":237.1492,"EPHEMERIS_TYPE":0,"CLASSIFICATION_TYPE":"U","NORAD_CAT_ID":58598,"ELEMENT_SET_NO":999,"REV_AT_EPOCH":10145,"BSTAR":0.0041706285,"MEAN_MOTION_DOT":0.00072735,"MEAN_MOTION_DDOT":0},{"OBJECT_NAME":"STARLINK-31052","OBJECT_ID":"2023-200M","EPOCH":"2025-10-13T04:13:52.447872","MEAN_MOTION":15.02527627,"ECCENTRICITY":0.00015507,"INCLINATION":43.0034,"RA_OF_ASC_NODE":251.8703,"ARG_OF_PERICENTER":266.9332,"MEAN_ANOMALY":93.1333,"EPHEMERIS_TYPE":0,"CLASSIFICATION_TYPE":"U","NORAD_CAT_ID":58600,"ELEMENT_SET_NO":999,"REV_AT_EPOCH":10140,"BSTAR":0.00017546447,"MEAN_MOTION_DOT":2.167e-5,"MEAN_MOTION_DDOT":0},{"OBJECT_NAME":"STARLINK-31074","OBJECT_ID":"2023-200N","EPOCH":"2025-10-13T04:09:05.548032","MEAN_MOTION":15.02535827,"ECCENTRICITY":6.998e-5,"INCLINATION":43.0053,"RA_OF_ASC_NODE":251.8457,"ARG_OF_PERICENTER":248.8037,"MEAN_ANOMALY":111.2731,"EPHEMERIS_TYPE":0,"CLASSIFICATION_TYPE":"U","NORAD_CAT_ID":58601,"ELEMENT_SET_NO":999,"REV_AT_EPOCH":10140,"BSTAR":0.00031932918,"MEAN_MOTION_DOT":4.113e-5,"MEAN_MOTION_DDOT":0},{"OBJECT_NAME":"STARLINK-31071","OBJECT_ID":"2023-200P","EPOCH":"2025-10-13T06:21:00.181152","MEAN_MOTION":15.27581345,"ECCENTRICITY":0.00014818,"INCLINATION":43.0023,"RA_OF_ASC_NODE":121.2563,"ARG_OF_PERICENTER":274.3023,"MEAN_ANOMALY":85.7659,"EPHEMERIS_TYPE":0,"CLASSIFICATION_TYPE":"U","NORAD_CAT_ID":58602,"ELEMENT_SET_NO":999,"REV_AT_EPOCH":10294,"BSTAR":3.2791137e-5,"MEAN_MOTION_DOT":6.4e-6,"MEAN_MOTION_DDOT":0},{"OBJECT_NAME":"STARLINK-31080","OBJECT_ID":"2023-200Q","EPOCH":"2025-10-12T15:16:15.853440","MEAN_MOTION":15.02878266,"ECCENTRICITY":9.439e-5,"INCLINATION":43.0021,"RA_OF_ASC_NODE":254.6984,"ARG_OF_PERICENTER":269.8987,"MEAN_ANOMALY":90.1747,"EPHEMERIS_TYPE":0,"CLASSIFICATION_TYPE":"U","NORAD_CAT_ID":58603,"ELEMENT_SET_NO":999,"REV_AT_EPOCH":10113,"BSTAR":0.0014948504,"MEAN_MOTION_DOT":0.00020232,"MEAN_MOTION_DDOT":0},{"OBJECT_NAME":"STARLINK-31088","OBJECT_ID":"2023-200R","EPOCH":"2025-10-12T15:13:39.618048","MEAN_MOTION":15.02538984,"ECCENTRICITY":0.00010872,"INCLINATION":43.0025,"RA_OF_ASC_NODE":254.67,"ARG_OF_PERICENTER":273.8842,"MEAN_ANOMALY":86.1876,"EPHEMERIS_TYPE":0,"CLASSIFICATION_TYPE":"U","NORAD_CAT_ID":58604,"ELEMENT_SET_NO":999,"REV_AT_EPOCH":10132,"BSTAR":8.7107031e-5,"MEAN_MOTION_DOT":9.73e-6,"MEAN_MOTION_DDOT":0},{"OBJECT_NAME":"STARLINK-31038","OBJECT_ID":"2023-200S","EPOCH":"2025-10-12T23:02:46.284288","MEAN_MOTION":15.02502831,"ECCENTRICITY":0.00014247,"INCLINATION":43.0072,"RA_OF_ASC_NODE":252.8322,"ARG_OF_PERICENTER":271.5608,"MEAN_ANOMALY":88.5071,"EPHEMERIS_TYPE":0,"CLASSIFICATION_TYPE":"U","NORAD_CAT_ID":58605,"ELEMENT_SET_NO":999,"REV_AT_EPOCH":10137,"BSTAR":-0.00012653427,"MEAN_MOTION_DOT":-1.911e-5,"MEAN_MOTION_DDOT":0}]
